IRIDIUM 39              
1 25042U 97069D   25269.14079557  .00001215  00000+0  31236-3 0  9992
2 25042  86.3980 167.8937 0017004 336.5561  23.4866 14.49345107463584
IRIDIUM 38              
1 25043U 97069E   25269.26532198  .00000935  00000+0  30160-3 0  9994
2 25043  86.4029 190.6592 0003860 103.9078 256.2550 14.38205523460482
IRIDIUM 42              
1 25077U 97077A   25269.32614310  .00000892  00000+0  29789-3 0  9991
2 25077  86.4028 196.9201 0002675  99.8361 260.3138 14.36434155455716
IRIDIUM 44              
1 25078U 97077B   25269.49386653  .00000866  00000+0  26717-3 0  9995
2 25078  86.4034 178.5321 0003942  71.2630 288.8997 14.40329525458286
IRIDIUM 45              
1 25104U 97082A   25269.30196262  .00029687  00000+0  96765-3 0  9998
2 25104  86.3620 358.6663 0106471 312.2505  46.9746 15.26253516467440
IRIDIUM 24              
1 25105U 97082B   25269.40562194  .00001193  00000+0  35590-3 0  9992
2 25105  86.3926  37.3381 0013431 101.9468 258.3238 14.42202166457808
IRIDIUM 51              
1 25262U 98018A   25269.52296947  .00083416  00000+0  14373-2 0  9992
2 25262  86.3849   5.3900 0072848 217.8567 141.7557 15.47764527462650
IRIDIUM 57              
1 25273U 98019B   25269.28601862  .00000615  00000+0  20518-3 0  9993
2 25273  86.3907 102.8910 0002208  89.4186 270.7264 14.35957178439298
